QIANFAN-1               
1 60379U 24140A   25297.29161538  .00000045  00000+0  51096-4 0  9999
2 60379  88.9731 304.4096 0017592   4.7898 355.3419 13.50977121 60674
QIANFAN-2               
1 60380U 24140B   25297.32045855  .00000037  00000+0  39285-4 0  9995
2 60380  88.9717 304.2527 0011912 338.9876  21.0784 13.50969231 60737
QIANFAN-3               
1 60381U 24140C   25297.25467835  .00000039  00000+0  42395-4 0  9992
2 60381  88.9710 304.3958 0013481 351.5348   8.5574 13.50969144 60637
QIANFAN-4               
1 60382U 24140D   25297.30397683  .00000042  00000+0  45831-4 0  9994
2 60382  88.9735 304.2760 0012238 341.6588  18.4120 13.50975994 60761
QIANFAN-5               
1 60383U 24140E   25297.27934017  .00000065  00000+0  81752-4 0  9996
2 60383  88.9710 304.4189 0015145   2.0530 358.0681 13.50972641 60623
QIANFAN-6               
1 60384U 24140F   25297.29994270  .00000042  00000+0  47194-4 0  9993
2 60384  88.9736 304.1497 0012568 347.7695  12.3149 13.50973733 60822
QIANFAN-7               
1 60385U 24140G   25297.25969018  .00000303  00000+0  11708-3 0  9993
2 60385  88.9746 299.5444 0014180 195.0977 164.9796 14.27582868 63333
QIANFAN-8               
1 60386U 24140H   25297.30813073  .00000053  00000+0  63211-4 0  9998
2 60386  88.9738 304.3856 0016064 348.0727  12.0042 13.50971824 60673
